STARLINK-4145           
1 53137U 22083F   26068.60474795 -.00000384  00000+0 -60578-5 0  9995
2 53137  53.2180 174.5037 0001334  92.5029 267.6116 15.08839686201203
DISKSAT A               
1 67222U 25305D   26068.54789610  .00013824  00000+0  90452-3 0  9996
2 67222  45.0023 251.6019 0004082 318.1929  41.8634 15.07741062 12266
